NORAD_CAT_ID,OBJECT_NAME,OBJECT_TYPE,EPOCH,MEAN_MOTION,ECCENTRICITY,INCLINATION,RA_OF_ASC_NODE,ARG_OF_PERICENTER,MEAN_ANOMALY,BSTAR,MEAN_MOTION_DOT,MEAN_MOTION_DDOT,TLE_LINE0,TLE_LINE1,TLE_LINE2,SEMIMAJOR_AXIS,PERIOD,APOGEE,PERIGEE,DECAYED
55744.0,STARLINK-5601,PAYLOAD,2024-03-12 23:41:57,14.98332932,0.0003188,69.9978,276.8718,269.4517,90.6276,6.9165e-05,7.32e-06,0.0,0 STARLINK-5601,1 55744U 23028D   24072.98746577  .00000732  00000-0  69165-4 0  9991,2 55744  69.9978 276.8718 0003188 269.4517  90.6276 14.98332932 57183,6950.184,96.107,574.265,569.833,0.0
55744.0,STARLINK-5601,PAYLOAD,2024-03-13 22:07:49,14.9833193,0.0003276,69.9978,274.5144,270.5018,89.5766,3.3035e-05,3.01e-06,0.0,0 STARLINK-5601,1 55744U 23028D   24073.92210615  .00000301  00000-0  33035-4 0  9994,2 55744  69.9978 274.5144 0003276 270.5018  89.5766 14.98331930 57322,6950.187,96.107,574.329,569.775,0.0
55744.0,STARLINK-5601,PAYLOAD,2024-03-13 23:43:57,14.98332566,0.0003388,69.9987,274.3456,271.0194,89.0577,4.3734e-05,4.29e-06,0.0,0 STARLINK-5601,1 55744U 23028D   24073.98886505  .00000429  00000-0  43734-4 0  9995,2 55744  69.9987 274.3456 0003388 271.0194  89.0577 14.98332566 57333,6950.185,96.107,574.405,569.695,0.0
55744.0,STARLINK-5601,PAYLOAD,2024-03-14 06:08:30,14.98332457,0.0003342,69.9985,273.6724,271.0411,89.0365,3.9401e-05,3.77e-06,0.0,0 STARLINK-5601,1 55744U 23028D   24074.25590504  .00000377  00000-0  39401-4 0  9995,2 55744  69.9985 273.6724 0003342 271.0411  89.0365 14.98332457 57371,6950.185,96.107,574.373,569.728,0.0
55744.0,STARLINK-5601,PAYLOAD,2024-03-14 22:09:51,14.98316206,0.000311,69.9989,271.9895,267.9482,92.1321,0.00024202,2.795e-05,0.0,0 STARLINK-5601,1 55744U 23028D   24074.92351090  .00002795  00000-0  24202-3 0  9992,2 55744  69.9989 271.9895 0003110 267.9482  92.1321 14.98316206 57472,6950.236,96.108,574.262,569.939,0.0
55744.0,STARLINK-5601,PAYLOAD,2024-03-15 12:35:03,14.98330899,0.0002888,69.9992,270.4752,269.9252,90.1576,4.9363e-05,4.96e-06,0.0,0 STARLINK-5601,1 55744U 23028D   24075.52434637  .00000496  00000-0  49363-4 0  9990,2 55744  69.9992 270.4752 0002888 269.9252  90.1576 14.98330899 57564,6950.19,96.107,574.062,570.048,0.0
55744.0,STARLINK-5601,PAYLOAD,2024-03-15 22:11:51,14.9833092,0.0002943,69.9991,269.4653,269.5188,90.5633,4.5249e-05,4.47e-06,0.0,0 STARLINK-5601,1 55744U 23028D   24075.92490623  .00000447  00000-0  45249-4 0  9996,2 55744  69.9991 269.4653 0002943 269.5188  90.5633 14.98330920 57627,6950.19,96.107,574.1,570.01,0.0
55744.0,STARLINK-5601,PAYLOAD,2024-03-16 12:37:04,14.98328683,0.0002895,69.9993,267.9488,274.1458,85.937,4.6917e-05,4.67e-06,0.0,0 STARLINK-5601,1 55744U 23028D   24076.52574817  .00000467  00000-0  46917-4 0  9996,2 55744  69.9993 267.9488 0002895 274.1458  85.9370 14.98328683 57715,6950.197,96.107,574.074,570.05,0.0
55744.0,STARLINK-5601,PAYLOAD,2024-03-16 14:13:12,14.98328066,0.0002985,69.999,267.782,267.1665,92.9153,2.9604e-05,2.6e-06,0.0,0 STARLINK-5601,1 55744U 23028D   24076.59250838  .00000260  00000-0  29604-4 0  9992,2 55744  69.9990 267.7820 0002985 267.1665  92.9153 14.98328066 57725,6950.199,96.107,574.139,569.989,0.0
55744.0,STARLINK-5601,PAYLOAD,2024-03-16 22:13:53,14.98328803,0.0002916,69.999,266.9402,261.6283,98.4546,3.3426e-05,3.06e-06,0.0,0 STARLINK-5601,1 55744U 23028D   24076.92630794  .00000306  00000-0  33426-4 0  9990,2 55744  69.9990 266.9402 0002916 261.6283  98.4546 14.98328803 57772,6950.197,96.107,574.088,570.035,0.0
55744.0,STARLINK-5601,PAYLOAD,2024-03-17 12:39:05,14.98332549,0.0002968,69.9987,265.4244,264.2922,95.7898,5.0336e-05,5.08e-06,0.0,0 STARLINK-5601,1 55744U 23028D   24077.52714480  .00000508  00000-0  50336-4 0  9995,2 55744  69.9987 265.4244 0002968 264.2922  95.7898 14.98332549 57864,6950.185,96.107,574.113,569.987,0.0
55744.0,STARLINK-5601,PAYLOAD,2024-03-17 14:15:13,14.98332281,0.0002979,69.9987,265.2563,264.3032,95.7788,4.6225e-05,4.59e-06,0.0,0 STARLINK-5601,1 55744U 23028D   24077.59390497  .00000459  00000-0  46225-4 0  9997,2 55744  69.9987 265.2563 0002979 264.3032  95.7788 14.98332281 57873,6950.186,96.107,574.121,569.98,0.0
55744.0,STARLINK-5601,PAYLOAD,2024-03-17 22:15:53,14.98333075,0.0002986,69.9988,264.4147,264.6747,95.4072,5.2006e-05,5.28e-06,0.0,0 STARLINK-5601,1 55744U 23028D   24077.92770409  .00000528  00000-0  52006-4 0  9990,2 55744  69.9988 264.4147 0002986 264.6747  95.4072 14.98333075 57928,6950.183,96.107,574.124,569.973,0.0
55744.0,STARLINK-5601,PAYLOAD,2024-03-18 12:41:06,14.98331431,0.0002989,69.9988,262.8996,264.3624,95.7194,6.5392e-05,6.87e-06,0.0,0 STARLINK-5601,1 55744U 23028D   24078.52854421  .00000687  00000-0  65392-4 0  9992,2 55744  69.9988 262.8996 0002989 264.3624  95.7194 14.98331431 58019,6950.188,96.107,574.131,569.976,0.0
55744.0,STARLINK-5601,PAYLOAD,2024-03-18 22:17:54,14.98330832,0.0003026,69.9988,261.8898,265.2064,94.8749,4.9564e-05,4.98e-06,0.0,0 STARLINK-5601,1 55744U 23028D   24078.92910488  .00000498  00000-0  49564-4 0  9995,2 55744  69.9988 261.8898 0003026 265.2064  94.8749 14.98330832 58076,6950.19,96.107,574.158,569.952,0.0
55744.0,STARLINK-5601,PAYLOAD,2024-03-19 11:06:58,14.98335871,0.0003064,69.9988,260.543,266.8415,93.2393,6.1384e-05,6.4e-06,0.0,0 STARLINK-5601,1 55744U 23028D   24079.46318101  .00000640  00000-0  61384-4 0  9992,2 55744  69.9988 260.5430 0003064 266.8415  93.2393 14.98335871 58158,6950.175,96.107,574.169,569.91,0.0
55744.0,STARLINK-5601,PAYLOAD,2024-03-19 20:43:46,14.98338036,0.0003032,69.9988,259.5333,268.0335,92.0477,8.2496e-05,8.92e-06,0.0,0 STARLINK-5601,1 55744U 23028D   24079.86373787  .00000892  00000-0  82496-4 0  9993,2 55744  69.9988 259.5333 0003032 268.0335  92.0477 14.98338036 58211,6950.168,96.106,574.14,569.926,0.0
55744.0,STARLINK-5601,PAYLOAD,2024-03-20 11:09:00,14.98326787,0.0002781,69.9996,258.0192,267.5087,92.5753,2.2653e-05,1.77e-06,0.0,0 STARLINK-5601,1 55744U 23028D   24080.46458605  .00000177  00000-0  22653-4 0  9999,2 55744  69.9996 258.0192 0002781 267.5087  92.5753 14.98326787 58307,6950.203,96.107,574.001,570.135,0.0
55744.0,STARLINK-5601,PAYLOAD,2024-03-20 14:21:16,14.98325193,0.0002819,69.9994,257.6823,266.336,93.7476,2.2977e-07,-9e-07,0.0,0 STARLINK-5601,1 55744U 23028D   24080.59810797 -.00000090  00000-0  22977-6 0  9993,2 55744  69.9994 257.6823 0002819 266.3360  93.7476 14.98325193 58321,6950.208,96.107,574.032,570.113,0.0
55744.0,STARLINK-5601,PAYLOAD,2024-03-20 20:45:48,14.98325072,0.0002814,69.9994,257.0088,265.1786,94.9052,-3.3188e-06,-1.33e-06,0.0,0 STARLINK-5601,1 55744U 23028D   24080.86514862 -.00000133  00000-0 -33188-5 0  9991,2 55744  69.9994 257.0088 0002814 265.1786  94.9052 14.98325072 58365,6950.208,96.107,574.029,570.117,0.0
55744.0,STARLINK-5601,PAYLOAD,2024-03-21 12:47:09,14.98333686,0.0002841,69.9994,255.3252,266.4784,93.605,1.6402e-05,1.03e-06,0.0,0 STARLINK-5601,1 55744U 23028D   24081.53274338  .00000103  00000-0  16402-4 0  9991,2 55744  69.9994 255.3252 0002841 266.4784  93.6050 14.98333686 58466,6950.181,96.107,574.021,570.072,0.0
55744.0,STARLINK-5601,PAYLOAD,2024-03-21 14:23:17,14.9833341,0.000285,69.9994,255.1569,266.5115,93.5718,1.3121e-05,6.4e-07,0.0,0 STARLINK-5601,1 55744U 23028D   24081.59950351  .00000064  00000-0  13121-4 0  9994,2 55744  69.9994 255.1569 0002850 266.5115  93.5718 14.98333410 58470,6950.182,96.107,574.028,570.067,0.0
55744.0,STARLINK-5601,PAYLOAD,2024-03-21 20:47:49,14.98334618,0.0002826,69.9992,254.4833,267.8554,92.2281,2.9215e-05,2.56e-06,0.0,0 STARLINK-5601,1 55744U 23028D   24081.86654198  .00000256  00000-0  29215-4 0  9998,2 55744  69.9992 254.4833 0002826 267.8554  92.2281 14.98334618 58515,6950.179,96.107,574.008,570.079,0.0
55744.0,STARLINK-5601,PAYLOAD,2024-03-22 12:49:08,14.98340722,0.000302,69.9987,252.7998,269.361,90.7203,0.00022864,2.637e-05,0.0,0 STARLINK-5601,1 55744U 23028D   24082.53413035  .00002637  00000-0  22864-3 0  9993,2 55744  69.9987 252.7998 0003020 269.3610  90.7203 14.98340722 58610,6950.16,96.106,574.124,569.926,0.0
55744.0,STARLINK-5601,PAYLOAD,2024-03-22 14:25:16,14.98340974,0.0003209,69.9987,252.6313,269.8111,90.268,0.00022285,2.568e-05,0.0,0 STARLINK-5601,1 55744U 23028D   24082.60088957  .00002568  00000-0  22285-3 0  9992,2 55744  69.9987 252.6313 0003209 269.8111  90.2680 14.98340974 58624,6950.159,96.106,574.254,569.794,0.0
55744.0,STARLINK-5601,PAYLOAD,2024-03-22 20:49:48,14.98345751,0.000285,69.9994,251.9575,267.4801,92.6032,0.00026669,3.092e-05,0.0,0 STARLINK-5601,1 55744U 23028D   24082.86792391  .00003092  00000-0  26669-3 0  9997,2 55744  69.9994 251.9575 0002850 267.4801  92.6032 14.98345751 58664,6950.144,96.106,573.99,570.028,0.0
55744.0,STARLINK-5601,PAYLOAD,2024-03-23 12:51:11,14.98324435,0.0002874,69.9986,250.275,272.0027,88.0803,-1.8354e-05,-3.12e-06,0.0,0 STARLINK-5601,1 55744U 23028D   24083.53554561 -.00000312  00000-0 -18354-4 0  9994,2 55744  69.9986 250.2750 0002874 272.0027  88.0803 14.98324435 58762,6950.21,96.107,574.073,570.078,0.0
55744.0,STARLINK-5601,PAYLOAD,2024-03-23 20:51:51,14.98324892,0.0003128,69.9987,249.4329,269.6286,90.4515,-6.5223e-05,-8.71e-06,0.0,0 STARLINK-5601,1 55744U 23028D   24083.86934634 -.00000871  00000-0 -65223-4 0  9990,2 55744  69.9987 249.4329 0003128 269.6286  90.4515 14.98324892 58817,6950.209,96.107,574.248,569.9,0.0
55744.0,STARLINK-5601,PAYLOAD,2024-03-24 12:53:11,14.98337314,0.0003111,69.9984,247.7494,266.3188,93.7615,4.8707e-05,4.88e-06,0.0,0 STARLINK-5601,1 55744U 23028D   24084.53693620  .00000488  00000-0  48707-4 0  9992,2 55744  69.9984 247.7494 0003111 266.3188  93.7615 14.98337314 58916,6950.17,96.107,574.197,569.873,0.0
55744.0,STARLINK-5601,PAYLOAD,2024-03-24 14:29:19,14.9833853,0.0003111,69.9986,247.5811,266.3188,93.7615,6.1417e-05,6.4e-06,0.0,0 STARLINK-5601,1 55744U 23028D   24084.60369532  .00000640  00000-0  61417-4 0  9995,2 55744  69.9986 247.5811 0003111 266.3188  93.7615 14.98338530 58921,6950.167,96.106,574.194,569.869,0.0
